NORAD_CAT_ID,OBJECT_NAME,OBJECT_TYPE,EPOCH,MEAN_MOTION,ECCENTRICITY,INCLINATION,RA_OF_ASC_NODE,ARG_OF_PERICENTER,MEAN_ANOMALY,BSTAR,MEAN_MOTION_DOT,MEAN_MOTION_DDOT,TLE_LINE0,TLE_LINE1,TLE_LINE2,SEMIMAJOR_AXIS,PERIOD,APOGEE,PERIGEE,DECAYED
53576.0,STARLINK-4581,PAYLOAD,2024-04-07 15:24:47,15.08826338,0.0001284,53.2186,321.0445,92.1138,268.0002,-9.853e-06,-4.45e-06,0.0,0 STARLINK-4581,1 53576U 22101BB  24098.64221204 -.00000445  00000-0 -98530-5 0  9991,2 53576  53.2186 321.0445 0001284  92.1138 268.0002 15.08826338 91430,6917.922,95.438,540.675,538.899,0.0
53576.0,STARLINK-4581,PAYLOAD,2024-04-07 21:46:19,15.08830414,0.0001364,53.2183,319.8553,94.5267,265.5881,1.5585e-05,-4e-07,0.0,0 STARLINK-4581,1 53576U 22101BB  24098.90717022 -.00000040  00000-0  15585-4 0  9996,2 53576  53.2183 319.8553 0001364  94.5267 265.5881 15.08830414 90650,6917.91,95.438,540.718,538.831,0.0
53576.0,STARLINK-4581,PAYLOAD,2024-04-08 07:18:37,15.08838673,0.0001319,53.2188,318.0723,97.8725,262.2417,7.5195e-05,9.09e-06,0.0,0 STARLINK-4581,1 53576U 22101BB  24099.30460535  .00000909  00000-0  75195-4 0  9991,2 53576  53.2188 318.0723 0001319  97.8725 262.2417 15.08838673 90711,6917.884,95.438,540.662,538.837,0.0
53576.0,STARLINK-4581,PAYLOAD,2024-04-08 21:37:05,15.08877959,0.0001166,53.22,315.3964,107.1916,252.9204,-0.00037485,-6.255e-05,0.0,0 STARLINK-4581,1 53576U 22101BB  24099.90075430 -.00006255  00000-0 -37485-3 0  9994,2 53576  53.2200 315.3964 0001166 107.1916 252.9204 15.08877959 91621,6917.764,95.435,540.436,538.823,0.0
53576.0,STARLINK-4581,PAYLOAD,2024-04-09 07:09:23,15.0885525,0.0001278,53.2207,313.6118,93.3921,266.7217,0.00010968,1.459e-05,0.0,0 STARLINK-4581,1 53576U 22101BB  24100.29819430  .00001459  00000-0  10968-3 0  9991,2 53576  53.2207 313.6118 0001278  93.3921 266.7217 15.08855250 90868,6917.834,95.437,540.583,538.815,0.0
53576.0,STARLINK-4581,PAYLOAD,2024-04-09 23:03:16,15.08831171,0.0001872,53.2157,310.6349,75.8438,284.2762,-2.0919e-05,-6.21e-06,0.0,0 STARLINK-4581,1 53576U 22101BB  24100.96061125 -.00000621  00000-0 -20919-4 0  9995,2 53576  53.2157 310.6349 0001872  75.8438 284.2762 15.08831171 90960,6917.907,95.438,541.067,538.477,0.0
53576.0,STARLINK-4581,PAYLOAD,2024-04-10 07:00:10,15.08857426,9.51e-05,53.2205,309.1504,94.9223,265.1878,0.000243,3.583e-05,0.0,0 STARLINK-4581,1 53576U 22101BB  24101.29179145  .00003583  00000-0  24300-3 0  9999,2 53576  53.2205 309.1504 0000951  94.9223 265.1878 15.08857426 91015,6917.827,95.436,540.35,539.034,0.0
53576.0,STARLINK-4581,PAYLOAD,2024-04-10 21:18:39,15.08834617,0.0002121,53.2174,306.4716,84.7014,275.422,-6.0749e-05,-1.255e-05,0.0,0 STARLINK-4581,1 53576U 22101BB  24101.88795772 -.00001255  00000-0 -60749-4 0  9998,2 53576  53.2174 306.4716 0002121  84.7014 275.4220 15.08834617 91103,6917.897,95.438,541.229,538.295,0.0
53576.0,STARLINK-4581,PAYLOAD,2024-04-11 19:34:03,15.08828686,0.0001128,53.2167,302.311,86.1463,273.9659,-8.5016e-05,-1.64e-05,0.0,0 STARLINK-4581,1 53576U 22101BB  24102.81532122 -.00001640  00000-0 -85016-4 0  9992,2 53576  53.2167 302.3110 0001128  86.1463 273.9659 15.08828686 92062,6917.915,95.438,540.56,539.0,0.0
53576.0,STARLINK-4581,PAYLOAD,2024-04-11 22:44:49,15.08833539,2.2e-05,53.2169,301.7159,138.2404,221.8605,-0.00024995,-4.262e-05,0.0,0 STARLINK-4581,1 53576U 22101BB  24102.94779627 -.00004262  00000-0 -24995-3 0  9990,2 53576  53.2169 301.7159 0000220 138.2404 221.8605 15.08833539 91263,6917.9,95.438,539.917,539.613,0.0
53576.0,STARLINK-4581,PAYLOAD,2024-04-13 19:15:38,15.08833705,0.0001215,53.2168,293.3892,107.6638,252.4487,0.00023562,3.463e-05,0.0,0 STARLINK-4581,1 53576U 22101BB  24104.80253057  .00003463  00000-0  23562-3 0  9990,2 53576  53.2168 293.3892 0001215 107.6638 252.4487 15.08833705 91540,6917.9,95.438,540.605,538.924,0.0
53576.0,STARLINK-4581,PAYLOAD,2024-04-14 22:17:11,15.08843644,0.0001191,53.2174,288.3328,107.013,253.0993,0.00030955,4.643e-05,0.0,0 STARLINK-4581,1 53576U 22101BB  24105.92860891  .00004643  00000-0  30955-3 0  9999,2 53576  53.2174 288.3328 0001191 107.0130 253.0993 15.08843644 92531,6917.869,95.437,540.558,538.91,0.0
53576.0,STARLINK-4581,PAYLOAD,2024-04-15 12:35:40,15.08842621,0.0001316,53.2176,285.6542,121.4539,238.6582,0.00017978,2.575e-05,0.0,0 STARLINK-4581,1 53576U 22101BB  24106.52476938  .00002575  00000-0  17978-3 0  9993,2 53576  53.2176 285.6542 0001316 121.4539 238.6582 15.08842621 92620,6917.872,95.437,540.648,538.827,0.0
53576.0,STARLINK-4581,PAYLOAD,2024-04-15 18:57:12,15.08842377,0.0001207,53.2173,284.4662,89.272,270.841,5.7048e-05,6.2e-06,0.0,0 STARLINK-4581,1 53576U 22101BB  24106.78973026  .00000620  00000-0  57048-4 0  9993,2 53576  53.2173 284.4662 0001207  89.2720 270.8410 15.08842377 92669,6917.873,95.437,540.573,538.903,0.0
53576.0,STARLINK-4581,PAYLOAD,2024-04-16 04:29:31,15.08844911,0.0001887,53.218,282.6832,89.0396,271.0813,0.00016831,2.392e-05,0.0,0 STARLINK-4581,1 53576U 22101BB  24107.18717073  .00002392  00000-0  16831-3 0  9998,2 53576  53.2180 282.6832 0001887  89.0396 271.0813 15.08844911 92720,6917.865,95.437,541.036,538.425,0.0
53576.0,STARLINK-4581,PAYLOAD,2024-04-16 18:47:59,15.08858263,0.0001095,53.2165,280.0096,104.1334,255.978,0.00037465,5.683e-05,0.0,0 STARLINK-4581,1 53576U 22101BB  24107.78332392  .00005683  00000-0  37465-3 0  9993,2 53576  53.2165 280.0096 0001095 104.1334 255.9780 15.08858263 91996,6917.825,95.436,540.447,538.932,0.0
53576.0,STARLINK-4581,PAYLOAD,2024-04-17 10:41:50,15.0885385,0.0002013,53.2179,277.038,68.5637,291.557,0.0003112,4.67e-05,0.0,0 STARLINK-4581,1 53576U 22101BB  24108.44572807  .00004670  00000-0  31120-3 0  9991,2 53576  53.2179 277.0380 0002013  68.5637 291.5570 15.08853850 92095,6917.838,95.437,541.096,538.31,0.0
53576.0,STARLINK-4581,PAYLOAD,2024-04-17 17:03:24,15.08824337,0.0001883,53.2167,275.8443,84.2763,275.8444,-0.00021556,-3.716e-05,0.0,0 STARLINK-4581,1 53576U 22101BB  24108.71069687 -.00003716  00000-0 -21556-3 0  9992,2 53576  53.2167 275.8443 0001883  84.2763 275.8444 15.08824337 92135,6917.928,95.439,541.096,538.491,0.0
53576.0,STARLINK-4581,PAYLOAD,2024-04-18 10:32:38,15.08832317,0.0001018,53.2152,272.5766,114.3494,245.7604,8.478e-05,1.062e-05,0.0,0 STARLINK-4581,1 53576U 22101BB  24109.43933678  .00001062  00000-0  84780-4 0  9991,2 53576  53.2152 272.5766 0001018 114.3494 245.7604 15.08832317 92240,6917.904,95.438,540.473,539.065,0.0
53576.0,STARLINK-4581,PAYLOAD,2024-04-18 18:29:34,15.08844698,0.0001445,53.2167,271.086,78.0852,282.0303,0.00014971,2.096e-05,0.0,0 STARLINK-4581,1 53576U 22101BB  24109.77053534  .00002096  00000-0  14971-3 0  9994,2 53576  53.2167 271.0860 0001445  78.0852 282.0303 15.08844698 92293,6917.866,95.437,540.731,538.731,0.0
53576.0,STARLINK-4581,PAYLOAD,2024-04-19 10:23:25,15.08842375,0.0001545,53.2165,268.1137,80.8087,279.308,0.00042631,6.504e-05,0.0,0 STARLINK-4581,1 53576U 22101BB  24110.43293979  .00006504  00000-0  42631-3 0  9990,2 53576  53.2165 268.1137 0001545  80.8087 279.3080 15.08842375 92399,6917.873,95.437,540.807,538.669,0.0
53576.0,STARLINK-4581,PAYLOAD,2024-04-19 15:09:35,15.0884179,0.0001471,53.2164,267.2205,87.1877,272.9284,0.0003349,5.046e-05,0.0,0 STARLINK-4581,1 53576U 22101BB  24110.63166011  .00005046  00000-0  33490-3 0  9991,2 53576  53.2164 267.2205 0001471  87.1877 272.9284 15.08841790 93249,6917.875,95.437,540.758,538.722,0.0
53576.0,STARLINK-4581,PAYLOAD,2024-04-20 13:25:00,15.08822548,0.0001459,53.2174,263.059,63.3048,296.8093,-0.0002208,-3.799e-05,0.0,0 STARLINK-4581,1 53576U 22101BB  24111.55902889 -.00003799  00000-0 -22080-3 0  9992,2 53576  53.2174 263.0590 0001459  63.3048 296.8093 15.08822548 92560,6917.934,95.439,540.808,538.789,0.0
53576.0,STARLINK-4581,PAYLOAD,2024-04-20 19:46:32,15.08831296,0.0001125,53.2172,261.8643,73.7249,286.3867,-0.00012797,-2.323e-05,0.0,0 STARLINK-4581,1 53576U 22101BB  24111.82398553 -.00002323  00000-0 -12797-3 0  9995,2 53576  53.2172 261.8643 0001125  73.7249 286.3867 15.08831296 92609,6917.907,95.438,540.55,538.994,0.0
53576.0,STARLINK-4581,PAYLOAD,2024-04-21 13:15:47,15.08834223,0.0001192,53.2167,258.594,75.7542,284.3582,7.6507e-05,9.3e-06,0.0,0 STARLINK-4581,1 53576U 22101BB  24112.55262939  .00000930  00000-0  76507-4 0  9994,2 53576  53.2167 258.5940 0001192  75.7542 284.3582 15.08834223 93536,6917.898,95.438,540.588,538.938,0.0
53576.0,STARLINK-4581,PAYLOAD,2024-04-21 14:51:10,15.08843223,0.0001621,53.2182,258.3015,96.1641,263.9536,0.00023319,3.425e-05,0.0,0 STARLINK-4581,1 53576U 22101BB  24112.61886647  .00003425  00000-0  23319-3 0  9993,2 53576  53.2182 258.3015 0001621  96.1641 263.9536 15.08843223 92720,6917.871,95.437,540.857,538.614,0.0
53576.0,STARLINK-4581,PAYLOAD,2024-04-22 09:55:47,15.08842673,0.0001528,53.2174,254.7296,76.0132,284.103,0.00038432,5.834e-05,0.0,0 STARLINK-4581,1 53576U 22101BB  24113.41374690  .00005834  00000-0  38432-3 0  9990,2 53576  53.2174 254.7296 0001528  76.0132 284.1030 15.08842673 92845,6917.872,95.437,540.794,538.68,0.0
53576.0,STARLINK-4581,PAYLOAD,2024-04-22 16:17:20,15.08832711,0.0001348,53.2167,253.54,79.9711,280.1433,6.07e-05,6.78e-06,0.0,0 STARLINK-4581,1 53576U 22101BB  24113.67871004  .00000678  00000-0  60700-4 0  9994,2 53576  53.2167 253.5400 0001348  79.9711 280.1433 15.08832711 92885,6917.903,95.438,540.7,538.835,0.0
53576.0,STARLINK-4581,PAYLOAD,2024-04-23 14:32:44,15.08841457,0.0001285,53.2163,249.3716,82.7837,277.3301,6.7244e-06,-1.81e-06,0.0,0 STARLINK-4581,1 53576U 22101BB  24114.60606674 -.00000181  00000-0  67244-5 0  9998,2 53576  53.2163 249.3716 0001285  82.7837 277.3301 15.08841457 93841,6917.876,95.437,540.63,538.852,0.0
53576.0,STARLINK-4581,PAYLOAD,2024-04-24 12:48:08,15.08836944,0.0001255,53.216,245.2104,80.6431,279.4703,0.00014733,2.057e-05,0.0,0 STARLINK-4581,1 53576U 22101BB  24115.53343237  .00002057  00000-0  14733-3 0  9990,2 53576  53.2160 245.2104 0001255  80.6431 279.4703 15.08836944 93167,6917.89,95.438,540.623,538.887,0.0
